{"type": "FeatureCollection", "features": [{"type": "Feature", "properties": {"norad_id": 28890, "name": "BEIJING 1", "group": "dmc", "lat": -17.257484966868773, "lon": -58.816223514272366, "alt_km": 686.0939660382537, "timestamp": "2025-12-22T05:49:03.149175+00:00", "meta": {"OBJECT_NAME": "BEIJING 1", "OBJECT_ID": "2005-043A", "EPOCH": "2025-12-21T20:42:54.243648", "MEAN_MOTION": 14.63374054, "ECCENTRICITY": 0.0015754, "INCLINATION": 98.266, "RA_OF_ASC_NODE": 123.3921, "ARG_OF_PERICENTER": 114.2989, "MEAN_ANOMALY": 245.986, "EPHEMERIS_TYPE": 0, "CLASSIFICATION_TYPE": "U", "NORAD_CAT_ID": 28890, "ELEMENT_SET_NO": 999, "REV_AT_EPOCH": 7471, "BSTAR": 7.5358e-05, "MEAN_MOTION_DOT": 3.41e-06, "MEAN_MOTION_DDOT": 0}, "tle": {"line1": "1 28890U 05043A   25355.86312782  .00000341  00000+0  75358-4 0  9995", "line2": "2 28890  98.2660 123.3921 0015754 114.2989 245.9860 14.63374054 74717"}}, "geometry": {"type": "Point", "coordinates": [-58.816223514272366, -17.257484966868773]}}, {"type": "Feature", "properties": {"norad_id": 33320, "name": "HUANJING 1A (HJ-1A)", "group": "dmc", "lat": -8.608371112470326, "lon": 162.97733986286133, "alt_km": 636.2054364677297, "timestamp": "2025-12-22T05:49:03.149201+00:00", "meta": {"OBJECT_NAME": "HUANJING 1A (HJ-1A)", "OBJECT_ID": "2008-041A", "EPOCH": "2025-12-21T20:52:32.784960", "MEAN_MOTION": 14.83420832, "ECCENTRICITY": 0.0019456, "INCLINATION": 97.6539, "RA_OF_ASC_NODE": 343.7868, "ARG_OF_PERICENTER": 5.5794, "MEAN_ANOMALY": 354.5633, "EPHEMERIS_TYPE": 0, "CLASSIFICATION_TYPE": "U", "NORAD_CAT_ID": 33320, "ELEMENT_SET_NO": 999, "REV_AT_EPOCH": 93211, "BSTAR": 0.0001694, "MEAN_MOTION_DOT": 1.344e-05, "MEAN_MOTION_DDOT": 0}, "tle": {"line1": "1 33320U 08041A   25355.86982390  .00001344  00000+0  16940-3 0  9993", "line2": "2 33320  97.6539 343.7868 0019456   5.5794 354.5633 14.83420832932116"}}, "geometry": {"type": "Point", "coordinates": [162.97733986286133, -8.608371112470326]}}, {"type": "Feature", "properties": {"norad_id": 33321, "name": "HUANJING 1B (HJ-1B)", "group": "dmc", "lat": 29.498883846770592, "lon": -16.539031655213353, "alt_km": 593.355655741092, "timestamp": "2025-12-22T05:49:03.149216+00:00", "meta": {"OBJECT_NAME": "HUANJING 1B (HJ-1B)", "OBJECT_ID": "2008-041B", "EPOCH": "2025-12-21T19:58:02.900928", "MEAN_MOTION": 14.82842744, "ECCENTRICITY": 0.0037984, "INCLINATION": 97.6397, "RA_OF_ASC_NODE": 347.4238, "ARG_OF_PERICENTER": 47.0055, "MEAN_ANOMALY": 313.4332, "EPHEMERIS_TYPE": 0, "CLASSIFICATION_TYPE": "U", "NORAD_CAT_ID": 33321, "ELEMENT_SET_NO": 999, "REV_AT_EPOCH": 93212, "BSTAR": 9.5249e-05, "MEAN_MOTION_DOT": 7.29e-06, "MEAN_MOTION_DDOT": 0}, "tle": {"line1": "1 33321U 08041B   25355.83197802  .00000729  00000+0  95249-4 0  9993", "line2": "2 33321  97.6397 347.4238 0037984  47.0055 313.4332 14.82842744932128"}}, "geometry": {"type": "Point", "coordinates": [-16.539031655213353, 29.498883846770592]}}, {"type": "Feature", "properties": {"norad_id": 33446, "name": "YAOGAN-4", "group": "dmc", "lat": -61.825137479332696, "lon": -58.68794839709119, "alt_km": 618.8970022928643, "timestamp": "2025-12-22T05:49:03.149228+00:00", "meta": {"OBJECT_NAME": "YAOGAN-4", "OBJECT_ID": "2008-061A", "EPOCH": "2025-12-21T18:45:45.373824", "MEAN_MOTION": 14.82706695, "ECCENTRICITY": 0.0013067, "INCLINATION": 97.9195, "RA_OF_ASC_NODE": 285.7927, "ARG_OF_PERICENTER": 291.438, "MEAN_ANOMALY": 68.5439, "EPHEMERIS_TYPE": 0, "CLASSIFICATION_TYPE": "U", "NORAD_CAT_ID": 33446, "ELEMENT_SET_NO": 999, "REV_AT_EPOCH": 91937, "BSTAR": 0.0001402, "MEAN_MOTION_DOT": 1.079e-05, "MEAN_MOTION_DDOT": 0}, "tle": {"line1": "1 33446U 08061A   25355.78177516  .00001079  00000+0  14020-3 0  9993", "line2": "2 33446  97.9195 285.7927 0013067 291.4380  68.5439 14.82706695919378"}}, "geometry": {"type": "Point", "coordinates": [-58.68794839709119, -61.825137479332696]}}, {"type": "Feature", "properties": {"norad_id": 35681, "name": "DEIMOS-1", "group": "dmc", "lat": 17.161013107945546, "lon": -21.1977494750735, "alt_km": 646.0799645225534, "timestamp": "2025-12-22T05:49:03.149239+00:00", "meta": {"OBJECT_NAME": "DEIMOS-1", "OBJECT_ID": "2009-041A", "EPOCH": "2025-12-21T17:41:09.848256", "MEAN_MOTION": 14.74964029, "ECCENTRICITY": 0.0002574, "INCLINATION": 97.7148, "RA_OF_ASC_NODE": 155.9213, "ARG_OF_PERICENTER": 65.428, "MEAN_ANOMALY": 294.7198, "EPHEMERIS_TYPE": 0, "CLASSIFICATION_TYPE": "U", "NORAD_CAT_ID": 35681, "ELEMENT_SET_NO": 999, "REV_AT_EPOCH": 88072, "BSTAR": 4.6401e-05, "MEAN_MOTION_DOT": 2.65e-06, "MEAN_MOTION_DDOT": 0}, "tle": {"line1": "1 35681U 09041A   25355.73691954  .00000265  00000+0  46401-4 0  9992", "line2": "2 35681  97.7148 155.9213 0002574  65.4280 294.7198 14.74964029880721"}}, "geometry": {"type": "Point", "coordinates": [-21.1977494750735, 17.161013107945546]}}, {"type": "Feature", "properties": {"norad_id": 35683, "name": "UK-DMC 2", "group": "dmc", "lat": -20.606632946328787, "lon": -52.09893932575821, "alt_km": 648.7424800633207, "timestamp": "2025-12-22T05:49:03.149250+00:00", "meta": {"OBJECT_NAME": "UK-DMC 2", "OBJECT_ID": "2009-041C", "EPOCH": "2025-12-21T20:46:26.334912", "MEAN_MOTION": 14.75638624, "ECCENTRICITY": 0.0001544, "INCLINATION": 97.8566, "RA_OF_ASC_NODE": 130.5111, "ARG_OF_PERICENTER": 92.6973, "MEAN_ANOMALY": 267.4413, "EPHEMERIS_TYPE": 0, "CLASSIFICATION_TYPE": "U", "NORAD_CAT_ID": 35683, "ELEMENT_SET_NO": 999, "REV_AT_EPOCH": 88041, "BSTAR": 9.375e-05, "MEAN_MOTION_DOT": 5.91e-06, "MEAN_MOTION_DDOT": 0}, "tle": {"line1": "1 35683U 09041C   25355.86558258  .00000591  00000+0  93750-4 0  9998", "line2": "2 35683  97.8566 130.5111 0001544  92.6973 267.4413 14.75638624880414"}}, "geometry": {"type": "Point", "coordinates": [-52.09893932575821, -20.606632946328787]}}, {"type": "Feature", "properties": {"norad_id": 40715, "name": "DMC3-FM1", "group": "dmc", "lat": -44.38327894373706, "lon": 35.51053796014965, "alt_km": 617.3552336152388, "timestamp": "2025-12-22T05:49:03.149261+00:00", "meta": {"OBJECT_NAME": "DMC3-FM1", "OBJECT_ID": "2015-032A", "EPOCH": "2025-12-21T20:43:29.600256", "MEAN_MOTION": 14.85455676, "ECCENTRICITY": 0.000409, "INCLINATION": 97.6687, "RA_OF_ASC_NODE": 222.7233, "ARG_OF_PERICENTER": 283.7264, "MEAN_ANOMALY": 76.3497, "EPHEMERIS_TYPE": 0, "CLASSIFICATION_TYPE": "U", "NORAD_CAT_ID": 40715, "ELEMENT_SET_NO": 999, "REV_AT_EPOCH": 56358, "BSTAR": 0.00013487, "MEAN_MOTION_DOT": 1.112e-05, "MEAN_MOTION_DDOT": 0}, "tle": {"line1": "1 40715U 15032A   25355.86353704  .00001112  00000+0  13487-3 0  9994", "line2": "2 40715  97.6687 222.7233 0004090 283.7264  76.3497 14.85455676563582"}}, "geometry": {"type": "Point", "coordinates": [35.51053796014965, -44.38327894373706]}}, {"type": "Feature", "properties": {"norad_id": 40716, "name": "DMC3-FM2", "group": "dmc", "lat": 73.44123743258683, "lon": 71.50883003980978, "alt_km": 608.362380666018, "timestamp": "2025-12-22T05:49:03.149271+00:00", "meta": {"OBJECT_NAME": "DMC3-FM2", "OBJECT_ID": "2015-032B", "EPOCH": "2025-12-21T21:15:52.109856", "MEAN_MOTION": 14.85458036, "ECCENTRICITY": 0.0004653, "INCLINATION": 97.6746, "RA_OF_ASC_NODE": 224.1955, "ARG_OF_PERICENTER": 290.7459, "MEAN_ANOMALY": 69.3258, "EPHEMERIS_TYPE": 0, "CLASSIFICATION_TYPE": "U", "NORAD_CAT_ID": 40716, "ELEMENT_SET_NO": 999, "REV_AT_EPOCH": 56358, "BSTAR": 0.00010863, "MEAN_MOTION_DOT": 8.85e-06, "MEAN_MOTION_DDOT": 0}, "tle": {"line1": "1 40716U 15032B   25355.88601979  .00000885  00000+0  10863-3 0  9998", "line2": "2 40716  97.6746 224.1955 0004653 290.7459  69.3258 14.85458036563585"}}, "geometry": {"type": "Point", "coordinates": [71.50883003980978, 73.44123743258683]}}, {"type": "Feature", "properties": {"norad_id": 40717, "name": "DMC3-FM3", "group": "dmc", "lat": -11.303668128943125, "lon": -132.27605635974186, "alt_km": 615.058830041401, "timestamp": "2025-12-22T05:49:03.149281+00:00", "meta": {"OBJECT_NAME": "DMC3-FM3", "OBJECT_ID": "2015-032C", "EPOCH": "2025-12-21T21:47:07.323360", "MEAN_MOTION": 14.8544082, "ECCENTRICITY": 0.0004084, "INCLINATION": 97.68, "RA_OF_ASC_NODE": 225.8555, "ARG_OF_PERICENTER": 292.0652, "MEAN_ANOMALY": 68.0129, "EPHEMERIS_TYPE": 0, "CLASSIFICATION_TYPE": "U", "NORAD_CAT_ID": 40717, "ELEMENT_SET_NO": 999, "REV_AT_EPOCH": 56359, "BSTAR": 1.8592e-05, "MEAN_MOTION_DOT": 1.09e-06, "MEAN_MOTION_DDOT": 0}, "tle": {"line1": "1 40717U 15032C   25355.90772365  .00000109  00000+0  18592-4 0  9997", "line2": "2 40717  97.6800 225.8555 0004084 292.0652  68.0129 14.85440820563595"}}, "geometry": {"type": "Point", "coordinates": [-132.27605635974186, -11.303668128943125]}}]}